[{"OBJECT_NAME":"STARLINK-32918","OBJECT_ID":"2025-037L","EPOCH":"2025-09-01T12:30:21.512448","MEAN_MOTION":14.98337527,"ECCENTRICITY":0.0001547,"INCLINATION":70.0018,"RA_OF_ASC_NODE":111.5285,"ARG_OF_PERICENTER":271.5616,"MEAN_ANOMALY":88.5366,"EPHEMERIS_TYPE":0,"CLASSIFICATION_TYPE":"U","NORAD_CAT_ID":63087,"ELEMENT_SET_NO":999,"REV_AT_EPOCH":3035,"BSTAR":0.00034206715,"MEAN_MOTION_DOT":3.992e-5,"MEAN_MOTION_DDOT":0},{"OBJECT_NAME":"STARLINK-32912","OBJECT_ID":"2025-037M","EPOCH":"2025-09-01T08:12:12.260448","MEAN_MOTION":14.98339609,"ECCENTRICITY":0.00028063,"INCLINATION":70.0016,"RA_OF_ASC_NODE":111.7091,"ARG_OF_PERICENTER":267.2852,"MEAN_ANOMALY":92.7986,"EPHEMERIS_TYPE":0,"CLASSIFICATION_TYPE":"U","NORAD_CAT_ID":63088,"ELEMENT_SET_NO":999,"REV_AT_EPOCH":3034,"BSTAR":0.00038068525,"MEAN_MOTION_DOT":4.453e-5,"MEAN_MOTION_DDOT":0},{"OBJECT_NAME":"STARLINK-32910","OBJECT_ID":"2025-037N","EPOCH":"2025-09-01T00:59:37.588128","MEAN_MOTION":14.98335728,"ECCENTRICITY":0.00024644,"INCLINATION":70.0015,"RA_OF_ASC_NODE":112.6607,"ARG_OF_PERICENTER":263.0161,"MEAN_ANOMALY":97.0718,"EPHEMERIS_TYPE":0,"CLASSIFICATION_TYPE":"U","NORAD_CAT_ID":63089,"ELEMENT_SET_NO":999,"REV_AT_EPOCH":3019,"BSTAR":0.00061834163,"MEAN_MOTION_DOT":7.294e-5,"MEAN_MOTION_DDOT":0},{"OBJECT_NAME":"STARLINK-32903","OBJECT_ID":"2025-037P","EPOCH":"2025-09-01T08:05:56.531904","MEAN_MOTION":14.98330548,"ECCENTRICITY":0.00026808,"INCLINATION":70.002,"RA_OF_ASC_NODE":111.696,"ARG_OF_PERICENTER":270.7543,"MEAN_ANOMALY":89.3309,"EPHEMERIS_TYPE":0,"CLASSIFICATION_TYPE":"U","NORAD_CAT_ID":63090,"ELEMENT_SET_NO":999,"REV_AT_EPOCH":3010,"BSTAR":-0.00016431033,"MEAN_MOTION_DOT":-2.053e-5,"MEAN_MOTION_DDOT":0},{"OBJECT_NAME":"STARLINK-32925","OBJECT_ID":"2025-037Q","EPOCH":"2025-09-01T01:47:25.771776","MEAN_MOTION":14.98333056,"ECCENTRICITY":0.00029064,"INCLINATION":70.0019,"RA_OF_ASC_NODE":112.3799,"ARG_OF_PERICENTER":267.6453,"MEAN_ANOMALY":92.4374,"EPHEMERIS_TYPE":0,"CLASSIFICATION_TYPE":"U","NORAD_CAT_ID":63091,"ELEMENT_SET_NO":999,"REV_AT_EPOCH":3014,"BSTAR":0.00037050087,"MEAN_MOTION_DOT":4.331e-5,"MEAN_MOTION_DDOT":0},{"OBJECT_NAME":"STARLINK-32924","OBJECT_ID":"2025-037R","EPOCH":"2025-09-01T08:23:59.161056","MEAN_MOTION":14.98340267,"ECCENTRICITY":0.00030248,"INCLINATION":70.0018,"RA_OF_ASC_NODE":111.7381,"ARG_OF_PERICENTER":268.6336,"MEAN_ANOMALY":91.4477,"EPHEMERIS_TYPE":0,"CLASSIFICATION_TYPE":"U","NORAD_CAT_ID":63092,"ELEMENT_SET_NO":999,"REV_AT_EPOCH":3024,"BSTAR":0.00038918923,"MEAN_MOTION_DOT":4.555e-5,"MEAN_MOTION_DDOT":0},{"OBJECT_NAME":"STARLINK-32900","OBJECT_ID":"2025-037S","EPOCH":"2025-09-01T02:17:29.238720","MEAN_MOTION":14.98328581,"ECCENTRICITY":0.00028396,"INCLINATION":70.002,"RA_OF_ASC_NODE":112.4516,"ARG_OF_PERICENTER":264.6677,"MEAN_ANOMALY":95.4159,"EPHEMERIS_TYPE":0,"CLASSIFICATION_TYPE":"U","NORAD_CAT_ID":63093,"ELEMENT_SET_NO":999,"REV_AT_EPOCH":3006,"BSTAR":0.00035882042,"MEAN_MOTION_DOT":4.191e-5,"MEAN_MOTION_DDOT":0},{"OBJECT_NAME":"STARLINK-32927","OBJECT_ID":"2025-037T","EPOCH":"2025-09-01T01:23:24.916992","MEAN_MOTION":14.98315811,"ECCENTRICITY":0.00031768,"INCLINATION":70.0014,"RA_OF_ASC_NODE":112.7235,"ARG_OF_PERICENTER":268.6495,"MEAN_ANOMALY":91.43,"EPHEMERIS_TYPE":0,"CLASSIFICATION_TYPE":"U","NORAD_CAT_ID":63094,"ELEMENT_SET_NO":999,"REV_AT_EPOCH":3014,"BSTAR":-7.7460727e-5,"MEAN_MOTION_DOT":-1.017e-5,"MEAN_MOTION_DDOT":0},{"OBJECT_NAME":"STARLINK-32907","OBJECT_ID":"2025-037U","EPOCH":"2025-09-01T09:06:03.969504","MEAN_MOTION":14.98340009,"ECCENTRICITY":0.00021333,"INCLINATION":70.002,"RA_OF_ASC_NODE":111.8336,"ARG_OF_PERICENTER":266.9051,"MEAN_ANOMALY":93.1865,"EPHEMERIS_TYPE":0,"CLASSIFICATION_TYPE":"U","NORAD_CAT_ID":63095,"ELEMENT_SET_NO":999,"REV_AT_EPOCH":3019,"BSTAR":0.00044934374,"MEAN_MOTION_DOT":5.274e-5,"MEAN_MOTION_DDOT":0},{"OBJECT_NAME":"STARLINK-32911","OBJECT_ID":"2025-037V","EPOCH":"2025-09-01T07:59:59.034624","MEAN_MOTION":14.98336335,"ECCENTRICITY":0.00026177,"INCLINATION":70.0022,"RA_OF_ASC_NODE":112.0767,"ARG_OF_PERICENTER":270.2885,"MEAN_ANOMALY":89.7975,"EPHEMERIS_TYPE":0,"CLASSIFICATION_TYPE":"U","NORAD_CAT_ID":63096,"ELEMENT_SET_NO":999,"REV_AT_EPOCH":3023,"BSTAR":0.000338256,"MEAN_MOTION_DOT":3.946e-5,"MEAN_MOTION_DDOT":0},{"OBJECT_NAME":"STARLINK-32923","OBJECT_ID":"2025-037W","EPOCH":"2025-09-01T01:53:25.096416","MEAN_MOTION":14.98345431,"ECCENTRICITY":0.0002741,"INCLINATION":70.0018,"RA_OF_ASC_NODE":112.3962,"ARG_OF_PERICENTER":275.7298,"MEAN_ANOMALY":84.3549,"EPHEMERIS_TYPE":0,"CLASSIFICATION_TYPE":"U","NORAD_CAT_ID":63097,"ELEMENT_SET_NO":999,"REV_AT_EPOCH":3020,"BSTAR":7.839561e-6,"MEAN_MOTION_DOT":1.0e-8,"MEAN_MOTION_DDOT":0},{"OBJECT_NAME":"STARLINK-32913","OBJECT_ID":"2025-037X","EPOCH":"2025-09-01T08:36:00.616608","MEAN_MOTION":14.983359,"ECCENTRICITY":0.00029506,"INCLINATION":70.0016,"RA_OF_ASC_NODE":111.758,"ARG_OF_PERICENTER":268.6164,"MEAN_ANOMALY":91.4657,"EPHEMERIS_TYPE":0,"CLASSIFICATION_TYPE":"U","NORAD_CAT_ID":63098,"ELEMENT_SET_NO":999,"REV_AT_EPOCH":3025,"BSTAR":0.00054146978,"MEAN_MOTION_DOT":6.375e-5,"MEAN_MOTION_DDOT":0},{"OBJECT_NAME":"STARLINK-11629 [DTC]","OBJECT_ID":"2025-039A","EPOCH":"2025-09-01T04:24:34.632288","MEAN_MOTION":15.70932878,"ECCENTRICITY":0.00016318,"INCLINATION":42.9992,"RA_OF_ASC_NODE":298.8985,"ARG_OF_PERICENTER":257.2483,"MEAN_ANOMALY":102.8202,"EPHEMERIS_TYPE":0,"CLASSIFICATION_TYPE":"U","NORAD_CAT_ID":63104,"ELEMENT_SET_NO":999,"REV_AT_EPOCH":2981,"BSTAR":0.0029595785,"MEAN_MOTION_DOT":0.00399706,"MEAN_MOTION_DDOT":0},{"OBJECT_NAME":"STARLINK-11624 [DTC]","OBJECT_ID":"2025-039B","EPOCH":"2025-09-01T03:55:29.727264","MEAN_MOTION":15.70997794,"ECCENTRICITY":0.00039795,"INCLINATION":42.9984,"RA_OF_ASC_NODE":299.6329,"ARG_OF_PERICENTER":295.0916,"MEAN_ANOMALY":64.9539,"EPHEMERIS_TYPE":0,"CLASSIFICATION_TYPE":"U","NORAD_CAT_ID":63105,"ELEMENT_SET_NO":999,"REV_AT_EPOCH":2980,"BSTAR":0.0019183495,"MEAN_MOTION_DOT":0.00255141,"MEAN_MOTION_DDOT":0},{"OBJECT_NAME":"STARLINK-11584 [DTC]","OBJECT_ID":"2025-039C","EPOCH":"2025-09-01T11:31:58.811520","MEAN_MOTION":15.70885593,"ECCENTRICITY":0.00019701,"INCLINATION":42.9996,"RA_OF_ASC_NODE":297.7074,"ARG_OF_PERICENTER":289.108,"MEAN_ANOMALY":70.9574,"EPHEMERIS_TYPE":0,"CLASSIFICATION_TYPE":"U","NORAD_CAT_ID":63106,"ELEMENT_SET_NO":999,"REV_AT_EPOCH":2985,"BSTAR":0.0018703946,"MEAN_MOTION_DOT":0.00247301,"MEAN_MOTION_DDOT":0},{"OBJECT_NAME":"STARLINK-11627 [DTC]","OBJECT_ID":"2025-039D","EPOCH":"2025-09-01T10:46:06.285504","MEAN_MOTION":15.70927092,"ECCENTRICITY":7.409e-5,"INCLINATION":43.0003,"RA_OF_ASC_NODE":297.4499,"ARG_OF_PERICENTER":239.1984,"MEAN_ANOMALY":120.8811,"EPHEMERIS_TYPE":0,"CLASSIFICATION_TYPE":"U","NORAD_CAT_ID":63107,"ELEMENT_SET_NO":999,"REV_AT_EPOCH":2985,"BSTAR":0.0027487545,"MEAN_MOTION_DOT":0.00369775,"MEAN_MOTION_DDOT":0},{"OBJECT_NAME":"STARLINK-11632 [DTC]","OBJECT_ID":"2025-039E","EPOCH":"2025-09-01T05:02:48.174720","MEAN_MOTION":15.71011311,"ECCENTRICITY":0.00017861,"INCLINATION":42.9991,"RA_OF_ASC_NODE":299.1106,"ARG_OF_PERICENTER":226.5352,"MEAN_ANOMALY":133.5367,"EPHEMERIS_TYPE":0,"CLASSIFICATION_TYPE":"U","NORAD_CAT_ID":63108,"ELEMENT_SET_NO":999,"REV_AT_EPOCH":2981,"BSTAR":0.0026205803,"MEAN_MOTION_DOT":0.00353018,"MEAN_MOTION_DDOT":0},{"OBJECT_NAME":"STARLINK-11625 [DTC]","OBJECT_ID":"2025-039F","EPOCH":"2025-08-31T15:26:24.179424","MEAN_MOTION":15.70926913,"ECCENTRICITY":0.00028188,"INCLINATION":42.9988,"RA_OF_ASC_NODE":302.6024,"ARG_OF_PERICENTER":277.8948,"MEAN_ANOMALY":82.1599,"EPHEMERIS_TYPE":0,"CLASSIFICATION_TYPE":"U","NORAD_CAT_ID":63109,"ELEMENT_SET_NO":999,"REV_AT_EPOCH":2972,"BSTAR":0.0021565111,"MEAN_MOTION_DOT":0.00287092,"MEAN_MOTION_DDOT":0},{"OBJECT_NAME":"STARLINK-11601 [DTC]","OBJECT_ID":"2025-039G","EPOCH":"2025-09-01T10:53:45.411648","MEAN_MOTION":15.70893621,"ECCENTRICITY":0.00019009,"INCLINATION":42.9998,"RA_OF_ASC_NODE":297.492,"ARG_OF_PERICENTER":307.2667,"MEAN_ANOMALY":52.8028,"EPHEMERIS_TYPE":0,"CLASSIFICATION_TYPE":"U","NORAD_CAT_ID":63110,"ELEMENT_SET_NO":999,"REV_AT_EPOCH":2985,"BSTAR":0.0027685572,"MEAN_MOTION_DOT":0.00372,"MEAN_MOTION_DDOT":0},{"OBJECT_NAME":"STARLINK-11630 [DTC]","OBJECT_ID":"2025-039H","EPOCH":"2025-08-31T15:34:03.359136","MEAN_MOTION":15.70892142,"ECCENTRICITY":0.00010301,"INCLINATION":42.999,"RA_OF_ASC_NODE":302.6439,"ARG_OF_PERICENTER":295.5288,"MEAN_ANOMALY":64.5473,"EPHEMERIS_TYPE":0,"CLASSIFICATION_TYPE":"U","NORAD_CAT_ID":63111,"ELEMENT_SET_NO":999,"REV_AT_EPOCH":2972,"BSTAR":0.0019090253,"MEAN_MOTION_DOT":0.00252652,"MEAN_MOTION_DDOT":0},{"OBJECT_NAME":"STARLINK-11590 [DTC]","OBJECT_ID":"2025-039J","EPOCH":"2025-09-01T11:39:37.187712","MEAN_MOTION":15.70900984,"ECCENTRICITY":0.00019759,"INCLINATION":42.9989,"RA_OF_ASC_NODE":297.7469,"ARG_OF_PERICENTER":271.8048,"MEAN_ANOMALY":88.2594,"EPHEMERIS_TYPE":0,"CLASSIFICATION_TYPE":"U","NORAD_CAT_ID":63112,"ELEMENT_SET_NO":999,"REV_AT_EPOCH":2985,"BSTAR":0.0010840473,"MEAN_MOTION_DOT":0.00141405,"MEAN_MOTION_DDOT":0},{"OBJECT_NAME":"STARLINK-11598 [DTC]","OBJECT_ID":"2025-039K","EPOCH":"2025-09-01T11:01:23.761920","MEAN_MOTION":15.7091863,"ECCENTRICITY":0.00029304,"INCLINATION":43.0014,"RA_OF_ASC_NODE":297.5335,"ARG_OF_PERICENTER":296.0728,"MEAN_ANOMALY":63.9838,"EPHEMERIS_TYPE":0,"CLASSIFICATION_TYPE":"U","NORAD_CAT_ID":63113,"ELEMENT_SET_NO":999,"REV_AT_EPOCH":2985,"BSTAR":0.0025306992,"MEAN_MOTION_DOT":0.00339,"MEAN_MOTION_DDOT":0},{"OBJECT_NAME":"STARLINK-11600 [DTC]","OBJECT_ID":"2025-039L","EPOCH":"2025-09-01T10:38:27.594816","MEAN_MOTION":15.70971834,"ECCENTRICITY":0.00017182,"INCLINATION":42.9997,"RA_OF_ASC_NODE":297.404,"ARG_OF_PERICENTER":252.9674,"MEAN_ANOMALY":107.1006,"EPHEMERIS_TYPE":0,"CLASSIFICATION_TYPE":"U","NORAD_CAT_ID":63114,"ELEMENT_SET_NO":999,"REV_AT_EPOCH":2985,"BSTAR":0.0021294437,"MEAN_MOTION_DOT":0.00283896,"MEAN_MOTION_DDOT":0}]
